OBJECT_NAME,OBJECT_ID,EPOCH,MEAN_MOTION,ECCENTRICITY,INCLINATION,RA_OF_ASC_NODE,ARG_OF_PERICENTER,MEAN_ANOMALY,EPHEMERIS_TYPE,CLASSIFICATION_TYPE,NORAD_CAT_ID,ELEMENT_SET_NO,REV_AT_EPOCH,BSTAR,MEAN_MOTION_DOT,MEAN_MOTION_DDOT
PERSEUS-M1,2014-033AF,2026-06-05T09:28:46.970112,14.95594170,.0010951,97.9642,100.3340,345.5802,14.5104,0,U,40039,999,64887,.24318E-3,.2641E-4,0
POLYITAN-1,2014-033AJ,2026-06-05T01:01:01.348608,15.32815214,.00077135,98.0948,181.1587,177.6399,182.4878,0,U,40042,999,65173,.69172249E-3,.21892E-3,0
TIGRISAT,2014-033AK,2026-06-05T09:25:19.904736,14.85113629,.0050661,97.7823,306.6759,112.8276,247.8301,0,U,40043,999,64387,.29106E-3,.2492E-4,0
AEROCUBE 6A,2014-033AM,2026-06-05T09:37:46.602912,14.97972844,.0039364,97.7220,323.4766,56.6811,303.8171,0,U,40045,999,64485,.55761E-3,.6627E-4,0
AEROCUBE 6B,2014-033AN,2026-06-05T09:57:41.219424,14.99431467,.0039123,97.7222,323.2534,48.9903,311.4692,0,U,40046,999,64499,.60593E-3,.7486E-4,0
CANX-4,2014-034C,2026-06-04T10:51:18.749376,14.81240766,.00139048,98.3135,30.2971,55.6030,304.6494,0,U,40055,999,64264,.16195794E-3,.1206E-4,0
CANX-5,2014-034D,2026-06-05T09:31:05.610144,14.81259108,.0013869,98.3138,31.3190,52.8981,307.3495,0,U,40056,999,63359,.13754E-3,.1016E-4,0
UKUBE-1,2014-037F,2026-06-05T11:10:59.687040,15.13359228,.0001839,98.4242,158.5085,145.4672,214.6676,0,U,40074,999,64678,.54164E-3,.9587E-4,0
BRITE-PL2 (HEWELIUSZ),2014-049B,2026-06-05T14:09:36.140832,14.94550332,.0015021,97.9087,268.5018,143.5558,216.6687,0,U,40119,999,63971,.27519E-3,.2921E-4,0
AEROCUBE 5C,2015-058B,2026-06-04T18:22:45.139872,14.91390657,.0130294,64.7686,301.2303,68.1429,293.3481,0,U,40965,999,36380,.30188E-3,.338E-4,0
AEROCUBE 7,2015-058C,2026-06-05T14:23:51.880992,14.95646892,.0120075,64.7633,281.1079,66.3029,295.0631,0,U,40966,999,36422,.35159E-3,.4352E-4,0
FOX-1A (AO-85),2015-058D,2026-06-04T22:38:39.056640,14.90905473,.01298043,64.7764,317.0315,61.3870,300.0228,0,U,40967,999,11174,.31879391E-3,.3528E-4,0
SINOD-D 1,2015-058E,2026-06-05T10:41:33.925056,14.95824911,.011839,64.7763,295.6808,57.7878,303.4649,0,U,40968,999,11490,.35342E-3,.4379E-4,0
SNAP-3 ALICE,2015-058G,2026-06-05T08:50:44.080800,15.57316269,.0031536,64.7499,144.7009,18.6380,341.5912,0,U,40970,999,11504,.13172E-2,.10006E-2,0
LMRST-SAT,2015-058H,2026-06-05T16:49:12.381600,14.90534184,.0131544,64.7770,310.9939,63.1102,298.3383,0,U,40971,999,11184,.29731E-3,.3259E-4,0
SNAP-3 EDDIE,2015-058J,2026-06-05T08:49:36.153120,15.58502700,.0031287,64.7421,135.5143,22.6588,337.5930,0,U,40972,999,11718,.12197E-2,.96816E-3,0
PROPCUBE 3,2015-058K,2026-06-05T11:55:28.136352,14.94187317,.0123542,64.7696,289.0585,64.5645,296.8193,0,U,40973,999,11305,.3153E-3,.376E-4,0
BISONSAT,2015-058L,2026-06-05T11:44:46.690656,15.15944472,.0078385,64.7581,211.4551,51.8444,308.9709,0,U,40974,999,11384,.49303E-3,.10073E-3,0
SNAP-3 JIMI,2015-058M,2026-06-05T09:44:48.773184,15.02190455,.0105634,64.7655,257.0442,60.2082,300.9489,0,U,40975,999,11245,.38499E-3,.5555E-4,0
PROPCUBE 1 (FLORA),2015-058N,2026-06-03T15:07:56.902944,14.89150106,.0130197,64.7756,337.2500,66.2388,295.2315,0,U,40976,999,11424,.31462E-3,.3319E-4,0
SINOD-D 3,2015-058P,2026-06-04T22:10:45.695136,14.93931677,.01187749,64.7738,314.1102,63.0075,298.3107,0,U,40977,999,11292,.38760554E-3,.458E-4,0
HORYU-4,2016-012D,2026-06-05T08:02:38.707872,15.87524639,.0002385,30.9854,165.5202,199.5119,160.5450,0,U,41340,999,56892,.90645E-3,.259558E-2,0
RAVAN,2016-067B,2026-06-05T17:04:47.754048,15.53541043,.0006083,97.9897,44.9672,62.5407,297.6462,0,U,41849,999,52591,.78936E-3,.50362E-3,0
CELTEE 1,2016-067C,2026-06-05T02:11:22.684128,15.19557233,.0000633,98.0680,21.8328,81.4413,278.6891,0,U,41850,999,52404,.25171E-3,.5275E-4,0
OPTICUBE 04,2016-067D,2026-06-05T01:58:08.306112,15.09604129,.0016217,98.0707,7.7341,154.1500,206.0541,0,U,41851,999,52334,.15975E-3,.2503E-4,0
AEROCUBE 8D,2016-067E,2026-06-04T03:47:19.882464,15.24207534,.00038566,98.0693,24.3388,157.4456,202.6950,0,U,41852,999,52408,.35456574E-3,.8564E-4,0
AEROCUBE 8C,2016-067F,2026-06-04T02:51:50.149152,15.24450194,.000676,98.0566,21.5419,103.7079,256.4909,0,U,41853,999,52407,.36698624E-3,.8936E-4,0
CORVUS BC2,2017-042X,2026-06-05T16:51:08.733024,15.06223106,.0014074,97.4067,318.5006,145.2056,215.0094,0,U,42846,999,48533,.25442E-3,.3679E-4,0
CORVUS BC1,2017-042Y,2026-06-05T10:22:38.202240,15.06389556,.0013406,97.4094,319.0473,124.7436,235.5056,0,U,42847,999,48532,.22543E-3,.3267E-4,0
MAKERSAT 0,2017-073D,2026-06-04T04:20:33.622080,15.31596076,.0106721,97.4650,37.6017,320.0172,39.3245,0,U,43016,999,46447,.63992E-3,.23305E-3,0
