PERSEUS-M1              
1 40039U 14033AF  26156.39498808  .00002641  00000+0  24318-3 0  9999
2 40039  97.9642 100.3340 0010951 345.5802  14.5104 14.95594170648872
POLYITAN-1              
1 40042U 14033AJ  26156.04237672  .00021892  00000+0  69172-3 0  9991
2 40042  98.0948 181.1587 0007713 177.6399 182.4878 15.32815214651733
TIGRISAT                
1 40043U 14033AK  26156.39259149  .00002492  00000+0  29106-3 0  9991
2 40043  97.7823 306.6759 0050661 112.8276 247.8301 14.85113629643873
AEROCUBE 6A             
1 40045U 14033AM  26156.40123383  .00006627  00000+0  55761-3 0  9995
2 40045  97.7220 323.4766 0039364  56.6811 303.8171 14.97972844644850
AEROCUBE 6B             
1 40046U 14033AN  26156.41506041  .00007486  00000+0  60593-3 0  9996
2 40046  97.7222 323.2534 0039123  48.9903 311.4692 14.99431467644994
CANX-4                  
1 40055U 14034C   26155.45230034  .00001206  00000+0  16196-3 0  9990
2 40055  98.3135  30.2971 0013904  55.6030 304.6494 14.81240766642644
CANX-5                  
1 40056U 14034D   26156.39659271  .00001016  00000+0  13754-3 0  9999
2 40056  98.3138  31.3190 0013869  52.8981 307.3495 14.81259108633592
UKUBE-1                 
1 40074U 14037F   26156.46596860  .00009587  00000+0  54164-3 0  9995
2 40074  98.4242 158.5085 0001839 145.4672 214.6676 15.13359228646780
BRITE-PL2 (HEWELIUSZ)   
1 40119U 14049B   26156.59000163  .00002921  00000+0  27519-3 0  9997
2 40119  97.9087 268.5018 0015021 143.5558 216.6687 14.94550332639715
AEROCUBE 5C             
1 40965U 15058B   26155.76580023  .00003380  00000+0  30188-3 0  9999
2 40965  64.7686 301.2303 0130294  68.1429 293.3481 14.91390657363809
AEROCUBE 7              
1 40966U 15058C   26156.59990603  .00004352  00000+0  35159-3 0  9994
2 40966  64.7633 281.1079 0120075  66.3029 295.0631 14.95646892364222
FOX-1A (AO-85)          
1 40967U 15058D   26155.94350760  .00003528  00000+0  31879-3 0  9996
2 40967  64.7764 317.0315 0129804  61.3870 300.0228 14.90905473111742
SINOD-D 1               
1 40968U 15058E   26156.44553154  .00004379  00000+0  35342-3 0  9999
2 40968  64.7763 295.6808 0118390  57.7878 303.4649 14.95824911114902
SNAP-3 ALICE            
1 40970U 15058G   26156.36856575  .00100060  00000+0  13172-2 0  9996
2 40970  64.7499 144.7009 0031536  18.6380 341.5912 15.57316269115041
LMRST-SAT               
1 40971U 15058H   26156.70083775  .00003259  00000+0  29731-3 0  9990
2 40971  64.7770 310.9939 0131544  63.1102 298.3383 14.90534184111849
SNAP-3 EDDIE            
1 40972U 15058J   26156.36777955  .00096816  00000+0  12197-2 0  9991
2 40972  64.7421 135.5143 0031287  22.6588 337.5930 15.58502700117183
PROPCUBE 3              
1 40973U 15058K   26156.49685343  .00003760  00000+0  31530-3 0  9994
2 40973  64.7696 289.0585 0123542  64.5645 296.8193 14.94187317113050
BISONSAT                
1 40974U 15058L   26156.48942929  .00010073  00000+0  49303-3 0  9992
2 40974  64.7581 211.4551 0078385  51.8444 308.9709 15.15944472113848
SNAP-3 JIMI             
1 40975U 15058M   26156.40612006  .00005555  00000+0  38499-3 0  9998
2 40975  64.7655 257.0442 0105634  60.2082 300.9489 15.02190455112459
PROPCUBE 1 (FLORA)      
1 40976U 15058N   26154.63051971  .00003319  00000+0  31462-3 0  9999
2 40976  64.7756 337.2500 0130197  66.2388 295.2315 14.89150106114241
SINOD-D 3               
1 40977U 15058P   26155.92413999  .00004580  00000+0  38761-3 0  9995
2 40977  64.7738 314.1102 0118774  63.0075 298.3107 14.93931677112920
HORYU-4                 
1 41340U 16012D   26156.33517023  .00259558  00000+0  90645-3 0  9996
2 41340  30.9854 165.5202 0002385 199.5119 160.5450 15.87524639568928
RAVAN                   
1 41849U 16067B   26156.71166382  .00050362  00000+0  78936-3 0  9991
2 41849  97.9897  44.9672 0006083  62.5407 297.6462 15.53541043525919
CELTEE 1                
1 41850U 16067C   26156.09123477  .00005275  00000+0  25171-3 0  9998
2 41850  98.0680  21.8328 0000633  81.4413 278.6891 15.19557233524045
OPTICUBE 04             
1 41851U 16067D   26156.08204058  .00002503  00000+0  15975-3 0  9995
2 41851  98.0707   7.7341 0016217 154.1500 206.0541 15.09604129523349
AEROCUBE 8D             
1 41852U 16067E   26155.15786901  .00008564  00000+0  35457-3 0  9995
2 41852  98.0693  24.3388 0003856 157.4456 202.6950 15.24207534524085
AEROCUBE 8C             
1 41853U 16067F   26155.11933043  .00008936  00000+0  36699-3 0  9995
2 41853  98.0566  21.5419 0006760 103.7079 256.4909 15.24450194524073
CORVUS BC2              
1 42846U 17042X   26156.70218441  .00003679  00000+0  25442-3 0  9999
2 42846  97.4067 318.5006 0014074 145.2056 215.0094 15.06223106485331
CORVUS BC1              
1 42847U 17042Y   26156.43238660  .00003267  00000+0  22543-3 0  9997
2 42847  97.4094 319.0473 0013406 124.7436 235.5056 15.06389556485324
MAKERSAT 0              
1 43016U 17073D   26155.18094470  .00023305  00000+0  63992-3 0  9998
2 43016  97.4650  37.6017 0106721 320.0172  39.3245 15.31596076464477
